*******************************************************************************
JPL/HORIZONS                45 Eugenia (A857 MA)           2020-Jun-20 08:00:07
Rec #:      45 (+COV) Soln.date: 2020-Feb-22_15:15:30   # obs: 3453 (1866-2020)
 
IAU76/J2000 helio. ecliptic osc. elements (au, days, deg., period=Julian yrs):
 
  EPOCH=  2454159.5 ! 2007-Feb-28.00 (TDB)         Residual RMS= .34146
   EC= .08197201094041852  QR= 2.497756099589242   TP= 2453495.2641008082
   OM= 147.9354391010836   W=  85.35277463637361   IN= 6.609077171575457
   A= 2.72078425642329     MA= 145.8764744504757   ADIST= 2.943812413257338
   PER= 4.48796            N= .219615457           ANGMOM= .028279027
   DAN= 2.68467            DDN= 2.72057            L= 233.2572618
   B= 6.587253             MOID= 1.49863994        TP= 2005-May-04.7641008082
 
Asteroid physical parameters (km, seconds, rotational period in hours):
   GM= n.a.                RAD= 101.1635           ROTPER= 5.699
   H= 7.5                  G= .070                 B-V= .676
                           ALBEDO= .045            STYP= C
 
ASTEROID comments: 
1: soln ref.= JPL#107, OCC=0
2: source=ORB
*******************************************************************************
 
 
*******************************************************************************
Ephemeris / WWW_USER Sat Jun 20 08:00:07 2020 Pasadena, USA      / Horizons
*******************************************************************************
Target body name: 45 Eugenia (A857 MA)            {source: JPL#107}
Center body name: Solar System Barycenter (0)     {source: DE431}
Center-site name: BODY CENTER
*******************************************************************************
Start time      : A.D. 1969-Jun-28 00:00:00.0000 TDB
Stop  time      : A.D. 2071-May-04 00:00:00.0000 TDB
Step-size       : 7200 minutes
*******************************************************************************
Center geodetic : 0.00000000,0.00000000,0.0000000 {E-lon(deg),Lat(deg),Alt(km)}
Center cylindric: 0.00000000,0.00000000,0.0000000 {E-lon(deg),Dxy(km),Dz(km)}
Center radii    : (undefined)                                                  
Small perturbers: Yes                             {source: SB431-N16}
Output units    : AU-D
Output type     : GEOMETRIC cartesian states
Output format   : 2 (position and velocity)
Reference frame : Ecliptic of J2000.0
*******************************************************************************
Initial IAU76/J2000 heliocentric ecliptic osculating elements (au, days, deg.):
  EPOCH=  2454159.5 ! 2007-Feb-28.00 (TDB)         Residual RMS= .34146        
   EC= .08197201094041852  QR= 2.497756099589242   TP= 2453495.2641008082      
   OM= 147.9354391010836   W=  85.35277463637361   IN= 6.609077171575457       
  Equivalent ICRF heliocentric equatorial cartesian coordinates (au, au/d):
   X= 2.650151423618039E+00  Y= 1.184913537480694E+00  Z= 2.107353298395937E-01
  VX=-3.591374365948466E-03 VY= 8.533392008683558E-03 VZ= 2.975877010440758E-03
Asteroid physical parameters (km, seconds, rotational period in hours):        
   GM= n.a.                RAD= 101.1635           ROTPER= 5.699               
   H= 7.5                  G= .070                 B-V= .676                   
                           ALBEDO= .045            STYP= C                     
*******************************************************************************
            JDTDB,            Calendar Date (TDB),        delta-T,                      X,                      Y,                      Z,                     VX,                     VY,                     VZ,
******************************************************************************************************************************************************************************************************************
$$SOE
2473300.500000000, A.D. 2059-Jul-26 00:00:00.0000,      69.183478, -1.419869493897793E-01, -2.511947145256877E+00,  2.527550764588947E-01,  1.115611319297999E-02, -1.126241426420510E-03, -5.948948023501135E-04,
2473305.500000000, A.D. 2059-Jul-31 00:00:00.0000,      69.183347, -8.617896397867421E-02, -2.517000575426010E+00,  2.497226394366482E-01,  1.116621999151608E-02, -8.951574133014341E-04, -6.180230499102357E-04,
2473310.500000000, A.D. 2059-Aug-05 00:00:00.0000,      69.183223, -3.033333982784732E-02, -2.520899094548343E+00,  2.465754247566309E-01,  1.117117270356891E-02, -6.642984464477305E-04, -6.408040320365411E-04,
2473315.500000000, A.D. 2059-Aug-10 00:00:00.0000,      69.183104,  2.552421596478388E-02, -2.523644148184274E+00,  2.433151959289278E-01,  1.117099728272169E-02, -4.337924028349731E-04, -6.632269394633571E-04,
2473320.500000000, A.D. 2059-Aug-15 00:00:00.0000,      69.182992,  8.136813528935576E-02, -2.525237817354945E+00,  2.399437695461741E-01,  1.116572335512778E-02, -2.037655690867778E-04, -6.852813494652895E-04,
2473325.500000000, A.D. 2059-Aug-20 00:00:00.0000,      69.182885,  1.371730071507524E-01, -2.525682810284261E+00,  2.364630133360188E-01,  1.115538412429288E-02,  2.565748015744585E-05, -7.069572316725190E-04,
2473330.500000000, A.D. 2059-Aug-25 00:00:00.0000,      69.182786,  1.929135953083975E-01, -2.524982453545887E+00,  2.328748441863009E-01,  1.114001627163071E-02,  2.543539985422734E-04, -7.282449531638723E-04,
2473335.500000000, A.D. 2059-Aug-30 00:00:00.0000,      69.182695,  2.485648554093333E-01, -2.523140682643216E+00,  2.291812261467150E-01,  1.111965985328059E-02,  4.822031784191677E-04, -7.491352827632546E-04,
2473340.500000000, A.D. 2059-Sep-04 00:00:00.0000,      69.182616,  3.041019515965550E-01, -2.520162032052896E+00,  2.253841684111577E-01,  1.109435819342279E-02,  7.090862549532448E-04, -7.696193944635590E-04,
2473345.500000000, A.D. 2059-Sep-09 00:00:00.0000,      69.182547,  3.595002725756435E-01, -2.516051624763706E+00,  2.214857232851132E-01,  1.106415777433244E-02,  9.348866039025391E-04, -7.896888699967346E-04,
2473350.500000000, A.D. 2059-Sep-14 00:00:00.0000,      69.182489,  4.147354471242384E-01, -2.510815161342175E+00,  2.174879841422239E-01,  1.102910812352909E-02,  1.159489833140296E-03, -8.093357005957315E-04,
2473355.500000000, A.D. 2059-Sep-19 00:00:00.0000,      69.182440,  4.697833590308459E-01, -2.504458908556251E+00,  2.133930833740045E-01,  1.098926169842714E-02,  1.382783867911409E-03, -8.285522879788675E-04,
2473360.500000000, A.D. 2059-Sep-24 00:00:00.0000,      69.182401,  5.246201614514452E-01, -2.496989687588439E+00,  2.092031903365389E-01,  1.094467376886460E-02,  1.604659029778379E-03, -8.473314445757855E-04,
2473365.500000000, A.D. 2059-Sep-29 00:00:00.0000,      69.182375,  5.792222906741576E-01, -2.488414861870028E+00,  2.049205092978955E-01,  1.089540229785528E-02,  1.825008109242261E-03, -8.656663930192062E-04,
2473370.500000000, A.D. 2059-Oct-04 00:00:00.0000,      69.182363,  6.335664792839311E-01, -2.478742324567955E+00,  2.005472773898422E-01,  1.084150782089901E-02,  2.043726432080948E-03, -8.835507649391016E-04,
2473375.500000000, A.D. 2059-Oct-09 00:00:00.0000,      69.182363,  6.876297687209144E-01, -2.467980485755498E+00,  1.960857625672480E-01,  1.078305332421300E-02,  2.260711919490847E-03, -9.009785991039279E-04,
2473380.500000000, A.D. 2059-Oct-14 00:00:00.0000,      69.182375,  7.413895212281415E-01, -2.456138259297620E+00,  1.915382615783320E-01,  1.072010412229403E-02,  2.475865142089914E-03, -9.179443389390191E-04,
2473385.500000000, A.D. 2059-Oct-19 00:00:00.0000,      69.182398,  7.948234311861935E-01, -2.443225049481692E+00,  1.869070979488846E-01,  1.065272773520641E-02,  2.689089367752506E-03, -9.344428294204929E-04,
2473390.500000000, A.D. 2059-Oct-24 00:00:00.0000,      69.182432,  8.479095358342237E-01, -2.429250737424619E+00,  1.821946199836135E-01,  1.058099376587093E-02,  2.900290603198089E-03, -9.504693133264743E-04,
2473395.500000000, A.D. 2059-Oct-29 00:00:00.0000,      69.182478,  9.006262253776920E-01, -2.414225667287650E+00,  1.774031987878313E-01,  1.050497377746908E-02,  3.109377629355850E-03, -9.660194268567437E-04,
2473400.500000000, A.D. 2059-Nov-03 00:00:00.0000,      69.182538,  9.529522524835218E-01, -2.398160632329461E+00,  1.725352263124941E-01,  1.042474117101964E-02,  3.316262030740563E-03, -9.810891946888634E-04,
2473405.500000000, A.D. 2059-Nov-08 00:00:00.0000,      69.182609,  1.004866741163792E+00, -2.381066860826498E+00,  1.675931134251453E-01,  1.034037106324547E-02,  3.520858219263744E-03, -9.956750245785156E-04,
2473410.500000000, A.D. 2059-Nov-13 00:00:00.0000,      69.182690,  1.056349195049969E+00, -2.362956001886992E+00,  1.625792880087435E-01,  1.025194016497720E-02,  3.723083453057508E-03, -1.009773701627905E-03,
2473415.500000000, A.D. 2059-Nov-18 00:00:00.0000,      69.182780,  1.107379505061413E+00, -2.343840111181997E+00,  1.574961930897440E-01,  1.015952666056615E-02,  3.922857850923894E-03, -1.023382382325479E-03,
2473420.500000000, A.D. 2059-Nov-23 00:00:00.0000,      69.182878,  1.157937956475057E+00, -2.323731636614591E+00,  1.523462849965332E-01,  1.006321008908207E-02,  4.120104402592029E-03, -1.036498588352926E-03,
2473425.500000000, A.D. 2059-Nov-28 00:00:00.0000,      69.182986,  1.208005235407109E+00, -2.302643403949186E+00,  1.471320315496631E-01,  9.963071228009315E-03,  4.314748974311665E-03, -1.049120200033403E-03,
2473430.500000000, A.D. 2059-Dec-03 00:00:00.0000,      69.183103,  1.257562434720090E+00, -2.280588602425690E+00,  1.418559102859910E-01,  9.859191979688504E-03,  4.506720309257875E-03, -1.061245449311272E-03,
2473435.500000000, A.D. 2059-Dec-08 00:00:00.0000,      69.183228,  1.306591059368755E+00, -2.257580770384876E+00,  1.365204067191157E-01,  9.751655260399086E-03,  4.695950022666160E-03, -1.072872912258741E-03,
